NORAD_CAT_ID,OBJECT_NAME,OBJECT_TYPE,EPOCH,MEAN_MOTION,ECCENTRICITY,INCLINATION,RA_OF_ASC_NODE,ARG_OF_PERICENTER,MEAN_ANOMALY,BSTAR,MEAN_MOTION_DOT,MEAN_MOTION_DDOT,TLE_LINE0,TLE_LINE1,TLE_LINE2,SEMIMAJOR_AXIS,PERIOD,APOGEE,PERIGEE,DECAYED
53389.0,STARLINK-4523,PAYLOAD,2024-01-27 21:16:55,15.08830822,0.0002282,53.2196,348.8721,113.0972,247.0261,0.00035954,5.437e-05,0.0,0 STARLINK-4523,1 53389U 22097B   24027.88675859  .00005437  00000-0  35954-3 0  9997,2 53389  53.2196 348.8721 0002282 113.0972 247.0261 15.08830822 82151,6917.908,95.438,541.352,538.195,0.0
53389.0,STARLINK-4523,PAYLOAD,2024-01-28 03:38:28,15.0883803,0.0001518,53.218,347.6889,93.526,266.5905,0.00019156,2.762e-05,0.0,0 STARLINK-4523,1 53389U 22097B   24028.15171917  .00002762  00000-0  19156-3 0  9998,2 53389  53.2180 347.6889 0001518  93.5260 266.5905 15.08838030 81541,6917.886,95.438,540.802,538.701,0.0
53389.0,STARLINK-4523,PAYLOAD,2024-01-28 06:49:14,15.08842815,0.0001545,53.2182,347.0916,102.4969,257.6196,0.00025547,3.78e-05,0.0,0 STARLINK-4523,1 53389U 22097B   24028.28419695  .00003780  00000-0  25547-3 0  9992,2 53389  53.2182 347.0916 0001545 102.4969 257.6196 15.08842815 82218,6917.872,95.437,540.806,538.668,0.0
53389.0,STARLINK-4523,PAYLOAD,2024-01-29 06:40:01,15.08853507,0.0001833,53.219,342.6302,106.4557,253.6636,0.00028242,4.211e-05,0.0,0 STARLINK-4523,1 53389U 22097B   24029.27779175  .00004211  00000-0  28242-3 0  9999,2 53389  53.2190 342.6302 0001833 106.4557 253.6636 15.08853507 81713,6917.839,95.437,540.972,538.436,0.0
53389.0,STARLINK-4523,PAYLOAD,2024-01-29 20:58:29,15.0884433,0.0001726,53.219,339.9543,100.7334,259.3852,0.00013301,1.83e-05,0.0,0 STARLINK-4523,1 53389U 22097B   24029.87395537  .00001830  00000-0  13301-3 0  9995,2 53389  53.2190 339.9543 0001726 100.7334 259.3852 15.08844330 82459,6917.867,95.437,540.926,538.538,0.0
53389.0,STARLINK-4523,PAYLOAD,2024-01-30 03:20:02,15.08845024,0.0001752,53.2192,338.7659,99.7484,260.3706,0.00011695,1.574e-05,0.0,0 STARLINK-4523,1 53389U 22097B   24030.13891442  .00001574  00000-0  11695-3 0  9991,2 53389  53.2192 338.7659 0001752  99.7484 260.3706 15.08845024 81841,6917.865,95.437,540.942,538.518,0.0
53389.0,STARLINK-4523,PAYLOAD,2024-01-30 06:30:48,15.08842024,0.0001871,53.2196,338.168,94.1485,265.9722,6.6279e-05,7.67e-06,0.0,0 STARLINK-4523,1 53389U 22097B   24030.27139400  .00000767  00000-0  66279-4 0  9997,2 53389  53.2196 338.1680 0001871  94.1485 265.9722 15.08842024 82516,6917.874,95.437,541.034,538.445,0.0
53389.0,STARLINK-4523,PAYLOAD,2024-01-31 03:10:49,15.088445,0.0001738,53.2189,334.3043,93.4414,266.6777,3.7242e-05,3.05e-06,0.0,0 STARLINK-4523,1 53389U 22097B   24031.13251422  .00000305  00000-0  37242-4 0  9998,2 53389  53.2189 334.3043 0001738  93.4414 266.6777 15.08844500 81995,6917.867,95.437,540.934,538.529,0.0
53389.0,STARLINK-4523,PAYLOAD,2024-01-31 19:04:40,15.0883753,0.0001968,53.2193,331.3355,98.4367,261.6849,6.5871e-05,7.6e-06,0.0,0 STARLINK-4523,1 53389U 22097B   24031.79491873  .00000760  00000-0  65871-4 0  9990,2 53389  53.2193 331.3355 0001968  98.4367 261.6849 15.08837530 82092,6917.888,95.438,541.114,538.391,0.0
53389.0,STARLINK-4523,PAYLOAD,2024-02-01 01:26:13,15.08836019,0.0001699,53.2192,330.1429,102.2556,257.8627,3.7917e-07,-2.82e-06,0.0,0 STARLINK-4523,1 53389U 22097B   24032.05987965 -.00000282  00000-0  37917-6 0  9994,2 53389  53.2192 330.1429 0001699 102.2556 257.8627 15.08836019 82783,6917.893,95.438,540.933,538.582,0.0
53389.0,STARLINK-4523,PAYLOAD,2024-02-02 02:52:23,15.08848503,0.0001489,53.2183,325.3858,89.7527,270.3635,0.00013514,1.864e-05,0.0,0 STARLINK-4523,1 53389U 22097B   24033.11971658  .00001864  00000-0  13514-3 0  9994,2 53389  53.2183 325.3858 0001489  89.7527 270.3635 15.08848503 82295,6917.854,95.437,540.749,538.689,0.0
53389.0,STARLINK-4523,PAYLOAD,2024-02-03 02:43:11,15.08841261,0.0002018,53.219,320.9275,59.2779,300.8412,0.0001366,1.887e-05,0.0,0 STARLINK-4523,1 53389U 22097B   24034.11332376  .00001887  00000-0  13660-3 0  9990,2 53389  53.2190 320.9275 0002018  59.2779 300.8412 15.08841261 82440,6917.877,95.437,541.138,538.346,0.0
53389.0,STARLINK-4523,PAYLOAD,2024-02-03 04:18:34,15.08842981,0.0001898,53.219,320.6267,61.1261,298.9921,0.0001713,2.439e-05,0.0,0 STARLINK-4523,1 53389U 22097B   24034.17956273  .00002439  00000-0  17130-3 0  9994,2 53389  53.2190 320.6267 0001898  61.1261 298.9921 15.08842981 83107,6917.871,95.437,541.049,538.423,0.0
53389.0,STARLINK-4523,PAYLOAD,2024-02-04 00:58:34,15.08844806,0.0002229,53.2195,316.7567,56.4316,303.6889,8.1157e-05,1.004e-05,0.0,0 STARLINK-4523,1 53389U 22097B   24035.04068134  .00001004  00000-0  81157-4 0  9999,2 53389  53.2195 316.7567 0002229  56.4316 303.6889 15.08844806 83237,6917.866,95.437,541.273,538.189,0.0
53389.0,STARLINK-4523,PAYLOAD,2024-02-04 18:27:49,15.08842381,0.0001621,53.2181,313.4917,73.9778,286.1392,6.4379e-05,7.37e-06,0.0,0 STARLINK-4523,1 53389U 22097B   24035.76932277  .00000737  00000-0  64379-4 0  9995,2 53389  53.2181 313.4917 0001621  73.9778 286.1392 15.08842381 82695,6917.873,95.437,540.859,538.617,0.0
53389.0,STARLINK-4523,PAYLOAD,2024-02-04 21:38:35,15.08841796,0.0001478,53.2176,312.8971,81.4343,278.6817,5.0514e-05,5.16e-06,0.0,0 STARLINK-4523,1 53389U 22097B   24035.90180192  .00000516  00000-0  50514-4 0  9993,2 53389  53.2176 312.8971 0001478  81.4343 278.6817 15.08841796 83366,6917.875,95.437,540.762,538.717,0.0
53389.0,STARLINK-4523,PAYLOAD,2024-02-05 04:00:07,15.08844855,0.0001457,53.2176,311.7063,82.0504,278.0653,6.7052e-05,7.79e-06,0.0,0 STARLINK-4523,1 53389U 22097B   24036.16675838  .00000779  00000-0  67052-4 0  9994,2 53389  53.2176 311.7063 0001457  82.0504 278.0653 15.08844855 83405,6917.866,95.437,540.738,538.723,0.0
53389.0,STARLINK-4523,PAYLOAD,2024-02-05 21:29:21,15.08846619,0.0001507,53.2179,308.4352,101.6682,258.4479,0.00013085,1.795e-05,0.0,0 STARLINK-4523,1 53389U 22097B   24036.89539283  .00001795  00000-0  13085-3 0  9992,2 53389  53.2179 308.4352 0001507 101.6682 258.4479 15.08846619 83513,6917.86,95.437,540.768,538.683,0.0
53389.0,STARLINK-4523,PAYLOAD,2024-02-06 03:50:54,15.08843765,0.0001592,53.218,307.2446,102.8522,257.2648,0.0003897,5.92e-05,0.0,0 STARLINK-4523,1 53389U 22097B   24037.16034925  .00005920  00000-0  38970-3 0  9990,2 53389  53.2180 307.2446 0001592 102.8522 257.2648 15.08843765 82902,6917.869,95.437,540.835,538.633,0.0
53389.0,STARLINK-4523,PAYLOAD,2024-02-06 22:55:32,15.08844159,0.0001698,53.217,303.6699,129.7469,230.3673,-3.1583e-05,-7.91e-06,0.0,0 STARLINK-4523,1 53389U 22097B   24037.95523344 -.00000791  00000-0 -31583-4 0  9992,2 53389  53.2170 303.6699 0001698 129.7469 230.3673 15.08844159 83679,6917.868,95.437,540.907,538.558,0.0
53389.0,STARLINK-4523,PAYLOAD,2024-02-07 00:30:55,15.0884355,0.0001421,53.2168,303.3718,116.4627,243.6511,-1.2226e-05,-4.83e-06,0.0,0 STARLINK-4523,1 53389U 22097B   24038.02147426 -.00000483  00000-0 -12226-4 0  9995,2 53389  53.2168 303.3718 0001421 116.4627 243.6511 15.08843550 83030,6917.87,95.437,540.718,538.752,0.0
53389.0,STARLINK-4523,PAYLOAD,2024-02-07 10:03:14,15.08834761,0.0001476,53.218,301.5936,80.954,279.1619,-6.7895e-05,-1.368e-05,0.0,0 STARLINK-4523,1 53389U 22097B   24038.41891979 -.00001368  00000-0 -67895-4 0  9992,2 53389  53.2180 301.5936 0001476  80.9540 279.1619 15.08834761 83098,6917.896,95.438,540.782,538.74,0.0
53389.0,STARLINK-4523,PAYLOAD,2024-02-07 21:10:57,15.08833149,0.0001629,53.2179,299.5193,109.8583,250.2585,-0.00018712,-3.264e-05,0.0,0 STARLINK-4523,1 53389U 22097B   24038.88260631 -.00003264  00000-0 -18712-3 0  9998,2 53389  53.2179 299.5193 0001629 109.8583 250.2585 15.08833149 83816,6917.901,95.438,540.893,538.639,0.0
53389.0,STARLINK-4523,PAYLOAD,2024-02-08 09:54:02,15.08836224,0.0001542,53.2183,297.142,107.5351,252.581,-3.7786e-05,-8.89e-06,0.0,0 STARLINK-4523,1 53389U 22097B   24039.41252671 -.00000889  00000-0 -37786-4 0  9996,2 53389  53.2183 297.1420 0001542 107.5351 252.5810 15.08836224 83891,6917.892,95.438,540.824,538.69,0.0
53389.0,STARLINK-4523,PAYLOAD,2024-02-08 17:50:58,15.08834157,0.0001521,53.2183,295.6549,112.5236,247.5917,0.0001918,2.765e-05,0.0,0 STARLINK-4523,1 53389U 22097B   24039.74372958  .00002765  00000-0  19180-3 0  9993,2 53389  53.2183 295.6549 0001521 112.5236 247.5917 15.08834157 83290,6917.898,95.438,540.815,538.711,0.0
53389.0,STARLINK-4523,PAYLOAD,2024-02-08 22:37:07,15.08841769,0.0001499,53.2181,294.763,114.0348,246.0801,0.00014785,2.066e-05,0.0,0 STARLINK-4523,1 53389U 22097B   24039.94244681  .00002066  00000-0  14785-3 0  9996,2 53389  53.2181 294.7630 0001499 114.0348 246.0801 15.08841769 83972,6917.875,95.437,540.777,538.703,0.0
53389.0,STARLINK-4523,PAYLOAD,2024-02-09 00:12:30,15.08844012,0.0001384,53.218,294.4652,104.6247,255.4899,0.00022453,3.288e-05,0.0,0 STARLINK-4523,1 53389U 22097B   24040.00868644  .00003288  00000-0  22453-3 0  9994,2 53389  53.2180 294.4652 0001384 104.6247 255.4899 15.08844012 83333,6917.868,95.437,540.691,538.776,0.0
53389.0,STARLINK-4523,PAYLOAD,2024-02-10 01:38:41,15.08849368,0.0001564,53.217,289.7066,76.9133,283.2034,0.00037588,5.701e-05,0.0,0 STARLINK-4523,1 53389U 22097B   24041.06853034  .00005701  00000-0  37588-3 0  9995,2 53389  53.2170 289.7066 0001564  76.9133 283.2034 15.08849368 83499,6917.852,95.437,540.799,538.635,0.0
53389.0,STARLINK-4523,PAYLOAD,2024-02-10 20:43:18,15.08844281,0.0001457,53.216,286.1341,83.1655,276.9503,0.00023489,3.453e-05,0.0,0 STARLINK-4523,1 53389U 22097B   24041.86341145  .00003453  00000-0  23489-3 0  9995,2 53389  53.2160 286.1341 0001457  83.1655 276.9503 15.08844281 83618,6917.867,95.437,540.74,538.724,0.0
53389.0,STARLINK-4523,PAYLOAD,2024-02-10 22:18:41,15.08847062,0.0001461,53.2164,285.8362,86.1289,273.9871,0.00023078,3.388e-05,0.0,0 STARLINK-4523,1 53389U 22097B   24041.92965217  .00003388  00000-0  23078-3 0  9995,2 53389  53.2164 285.8362 0001461  86.1289 273.9871 15.08847062 84270,6917.859,95.437,540.735,538.713,0.0
